IONOSFERA-M 1           
1 61735U 24199A   26074.30810242  .00000051  00000+0  42382-4 0  9994
2 61735  98.7318 308.4029 0002036  68.5853 291.5542 14.22736282114351
IONOSFERA-M 2           
1 61736U 24199B   26074.27226611  .00000057  00000+0  45178-4 0  9994
2 61736  98.7317 308.2788 0000532 134.5598 225.5624 14.22738966117475
BIOMASS                 
1 63772U 25090A   26074.28009789  .00000372  00000+0  74073-4 0  9999
2 63772  98.0786 262.9456 0001250 125.8116 234.3205 14.67525625 46913
GOSAT-GW (IBUKI GW)     
1 64694U 25141A   26065.03170321  .00001373  00000+0  25032-3 0  9996
2 64694  98.0504   4.0681 0001432  83.7436 276.3932 14.67569112 36718
IONOSFERA-M 3           
1 64876U 25155A   26074.27628586  .00000079  00000+0  55624-4 0  9993
2 64876  98.5931  38.5958 0002284 109.5248 250.6176 14.21468028 33066
IONOSFERA-M 4           
1 64877U 25155B   26074.24086840  .00000088  00000+0  59711-4 0  9993
2 64877  98.5928  38.4797 0001787  97.4800 262.6581 14.21469871 33058
MICROCARB               
1 64899U 25156A   26074.22462476  .00000659  00000+0  11214-3 0  9998
2 64899  97.9879 153.0304 0015806 208.3446 151.6903 14.72211734 34149
CO3D 3                  
1 64900U 25156B   26074.25851866  .00005804  00000+0  27107-3 0  9994
2 64900  97.4332 154.3001 0001639 125.5587 234.5801 15.20195516 35269
CO3D 4                  
1 64901U 25156C   26074.25866809  .00000838  00000+0  41825-4 0  9994
2 64901  97.4331 154.3002 0000560 196.4566 163.6651 15.20196295 35266
CO3D 2                  
1 64902U 25156D   26074.29115196  .00006640  00000+0  30962-3 0  9991
2 64902  97.4332 154.2311 0001387 102.7058 257.4332 15.20195561 35267
CO3D 1                  
1 64903U 25156E   26074.29130462  .00006633  00000+0  30931-3 0  9993
2 64903  97.4332 154.2311 0001371 114.9010 245.2368 15.20197548 35265
SENTINEL-6B             
1 66514U 25264A   26074.08243079 -.00000019  00000+0  18070-3 0  9992
2 66514  66.0439 330.6387 0007916 270.6504  89.3604 12.80929686 15118
CSG-3                   
1 67304U 26001A   26074.29188230  .00000464  00000+0  64882-4 0  9996
2 67304  97.8870 259.2486 0001402  86.9756 273.1618 14.82155419 10554
