[{"OBJECT_NAME":"IONOSFERA-M 1","OBJECT_ID":"2024-199A","EPOCH":"2026-03-15T07:23:40.049088","MEAN_MOTION":14.22736282,"ECCENTRICITY":0.00020365,"INCLINATION":98.7318,"RA_OF_ASC_NODE":308.4029,"ARG_OF_PERICENTER":68.5853,"MEAN_ANOMALY":291.5542,"EPHEMERIS_TYPE":0,"CLASSIFICATION_TYPE":"U","NORAD_CAT_ID":61735,"ELEMENT_SET_NO":999,"REV_AT_EPOCH":11435,"BSTAR":4.238242e-5,"MEAN_MOTION_DOT":5.1e-7,"MEAN_MOTION_DDOT":0},{"OBJECT_NAME":"IONOSFERA-M 2","OBJECT_ID":"2024-199B","EPOCH":"2026-03-15T06:32:03.791904","MEAN_MOTION":14.22738966,"ECCENTRICITY":5.323e-5,"INCLINATION":98.7317,"RA_OF_ASC_NODE":308.2788,"ARG_OF_PERICENTER":134.5598,"MEAN_ANOMALY":225.5624,"EPHEMERIS_TYPE":0,"CLASSIFICATION_TYPE":"U","NORAD_CAT_ID":61736,"ELEMENT_SET_NO":999,"REV_AT_EPOCH":11747,"BSTAR":4.5178066e-5,"MEAN_MOTION_DOT":5.7e-7,"MEAN_MOTION_DDOT":0},{"OBJECT_NAME":"BIOMASS","OBJECT_ID":"2025-090A","EPOCH":"2026-03-15T06:43:20.457696","MEAN_MOTION":14.67525625,"ECCENTRICITY":0.00012506,"INCLINATION":98.0786,"RA_OF_ASC_NODE":262.9456,"ARG_OF_PERICENTER":125.8116,"MEAN_ANOMALY":234.3205,"EPHEMERIS_TYPE":0,"CLASSIFICATION_TYPE":"U","NORAD_CAT_ID":63772,"ELEMENT_SET_NO":999,"REV_AT_EPOCH":4691,"BSTAR":7.4072805e-5,"MEAN_MOTION_DOT":3.72e-6,"MEAN_MOTION_DDOT":0},{"OBJECT_NAME":"GOSAT-GW (IBUKI GW)","OBJECT_ID":"2025-141A","EPOCH":"2026-03-06T00:45:39.157344","MEAN_MOTION":14.67569112,"ECCENTRICITY":0.00014325,"INCLINATION":98.0504,"RA_OF_ASC_NODE":4.0681,"ARG_OF_PERICENTER":83.7436,"MEAN_ANOMALY":276.3932,"EPHEMERIS_TYPE":0,"CLASSIFICATION_TYPE":"U","NORAD_CAT_ID":64694,"ELEMENT_SET_NO":999,"REV_AT_EPOCH":3671,"BSTAR":0.00025031569,"MEAN_MOTION_DOT":1.373e-5,"MEAN_MOTION_DDOT":0},{"OBJECT_NAME":"IONOSFERA-M 3","OBJECT_ID":"2025-155A","EPOCH":"2026-03-15T06:37:51.098304","MEAN_MOTION":14.21468028,"ECCENTRICITY":0.00022847,"INCLINATION":98.5931,"RA_OF_ASC_NODE":38.5958,"ARG_OF_PERICENTER":109.5248,"MEAN_ANOMALY":250.6176,"EPHEMERIS_TYPE":0,"CLASSIFICATION_TYPE":"U","NORAD_CAT_ID":64876,"ELEMENT_SET_NO":999,"REV_AT_EPOCH":3306,"BSTAR":5.5624254e-5,"MEAN_MOTION_DOT":7.9e-7,"MEAN_MOTION_DDOT":0},{"OBJECT_NAME":"IONOSFERA-M 4","OBJECT_ID":"2025-155B","EPOCH":"2026-03-15T05:46:51.029760","MEAN_MOTION":14.21469871,"ECCENTRICITY":0.00017874,"INCLINATION":98.5928,"RA_OF_ASC_NODE":38.4797,"ARG_OF_PERICENTER":97.48,"MEAN_ANOMALY":262.6581,"EPHEMERIS_TYPE":0,"CLASSIFICATION_TYPE":"U","NORAD_CAT_ID":64877,"ELEMENT_SET_NO":999,"REV_AT_EPOCH":3305,"BSTAR":5.971101e-5,"MEAN_MOTION_DOT":8.8e-7,"MEAN_MOTION_DDOT":0},{"OBJECT_NAME":"MICROCARB","OBJECT_ID":"2025-156A","EPOCH":"2026-03-15T05:23:27.579264","MEAN_MOTION":14.72211734,"ECCENTRICITY":0.00158067,"INCLINATION":97.9879,"RA_OF_ASC_NODE":153.0304,"ARG_OF_PERICENTER":208.3446,"MEAN_ANOMALY":151.6903,"EPHEMERIS_TYPE":0,"CLASSIFICATION_TYPE":"U","NORAD_CAT_ID":64899,"ELEMENT_SET_NO":999,"REV_AT_EPOCH":3414,"BSTAR":0.00011214468,"MEAN_MOTION_DOT":6.59e-6,"MEAN_MOTION_DDOT":0},{"OBJECT_NAME":"CO3D 3","OBJECT_ID":"2025-156B","EPOCH":"2026-03-15T06:12:16.012224","MEAN_MOTION":15.20195516,"ECCENTRICITY":0.00016393,"INCLINATION":97.4332,"RA_OF_ASC_NODE":154.3001,"ARG_OF_PERICENTER":125.5587,"MEAN_ANOMALY":234.5801,"EPHEMERIS_TYPE":0,"CLASSIFICATION_TYPE":"U","NORAD_CAT_ID":64900,"ELEMENT_SET_NO":999,"REV_AT_EPOCH":3526,"BSTAR":0.00027106893,"MEAN_MOTION_DOT":5.804e-5,"MEAN_MOTION_DDOT":0},{"OBJECT_NAME":"CO3D 4","OBJECT_ID":"2025-156C","EPOCH":"2026-03-15T06:12:28.922976","MEAN_MOTION":15.20196295,"ECCENTRICITY":5.608e-5,"INCLINATION":97.4331,"RA_OF_ASC_NODE":154.3002,"ARG_OF_PERICENTER":196.4566,"MEAN_ANOMALY":163.6651,"EPHEMERIS_TYPE":0,"CLASSIFICATION_TYPE":"U","NORAD_CAT_ID":64901,"ELEMENT_SET_NO":999,"REV_AT_EPOCH":3526,"BSTAR":4.182537e-5,"MEAN_MOTION_DOT":8.38e-6,"MEAN_MOTION_DDOT":0},{"OBJECT_NAME":"CO3D 2","OBJECT_ID":"2025-156D","EPOCH":"2026-03-15T06:59:15.529344","MEAN_MOTION":15.20195561,"ECCENTRICITY":0.00013874,"INCLINATION":97.4332,"RA_OF_ASC_NODE":154.2311,"ARG_OF_PERICENTER":102.7058,"MEAN_ANOMALY":257.4332,"EPHEMERIS_TYPE":0,"CLASSIFICATION_TYPE":"U","NORAD_CAT_ID":64902,"ELEMENT_SET_NO":999,"REV_AT_EPOCH":3526,"BSTAR":0.00030961968,"MEAN_MOTION_DOT":6.64e-5,"MEAN_MOTION_DDOT":0},{"OBJECT_NAME":"CO3D 1","OBJECT_ID":"2025-156E","EPOCH":"2026-03-15T06:59:28.719168","MEAN_MOTION":15.20197548,"ECCENTRICITY":0.00013711,"INCLINATION":97.4332,"RA_OF_ASC_NODE":154.2311,"ARG_OF_PERICENTER":114.901,"MEAN_ANOMALY":245.2368,"EPHEMERIS_TYPE":0,"CLASSIFICATION_TYPE":"U","NORAD_CAT_ID":64903,"ELEMENT_SET_NO":999,"REV_AT_EPOCH":3526,"BSTAR":0.00030930563,"MEAN_MOTION_DOT":6.633e-5,"MEAN_MOTION_DDOT":0},{"OBJECT_NAME":"SENTINEL-6B","OBJECT_ID":"2025-264A","EPOCH":"2026-03-15T01:58:42.020256","MEAN_MOTION":12.80929686,"ECCENTRICITY":0.00079163,"INCLINATION":66.0439,"RA_OF_ASC_NODE":330.6387,"ARG_OF_PERICENTER":270.6504,"MEAN_ANOMALY":89.3604,"EPHEMERIS_TYPE":0,"CLASSIFICATION_TYPE":"U","NORAD_CAT_ID":66514,"ELEMENT_SET_NO":999,"REV_AT_EPOCH":1511,"BSTAR":0.00018069808,"MEAN_MOTION_DOT":-1.9e-7,"MEAN_MOTION_DDOT":0},{"OBJECT_NAME":"CSG-3","OBJECT_ID":"2026-001A","EPOCH":"2026-03-15T07:00:18.630720","MEAN_MOTION":14.82155419,"ECCENTRICITY":0.00014026,"INCLINATION":97.887,"RA_OF_ASC_NODE":259.2486,"ARG_OF_PERICENTER":86.9756,"MEAN_ANOMALY":273.1618,"EPHEMERIS_TYPE":0,"CLASSIFICATION_TYPE":"U","NORAD_CAT_ID":67304,"ELEMENT_SET_NO":999,"REV_AT_EPOCH":1055,"BSTAR":6.4882256e-5,"MEAN_MOTION_DOT":4.64e-6,"MEAN_MOTION_DDOT":0}]
